{
  "links" : {
    "next" : "https://api.nasa.gov/neo/rest/v1/feed?start_date=2013-12-16&end_date=2013-12-16&detailed=true&api_key=t0TVs3DtDT2H8Oy2Zy8m2eVrNsAVKAexjcZXUckd",
    "prev" : "https://api.nasa.gov/neo/rest/v1/feed?start_date=2013-12-14&end_date=2013-12-14&detailed=true&api_key=t0TVs3DtDT2H8Oy2Zy8m2eVrNsAVKAexjcZXUckd",
    "self" : "https://api.nasa.gov/neo/rest/v1/feed?start_date=2013-12-15&end_date=2013-12-15&detailed=true&api_key=t0TVs3DtDT2H8Oy2Zy8m2eVrNsAVKAexjcZXUckd"
  },
  "element_count" : 6,
  "near_earth_objects" : {
    "2013-12-15" : [ {
      "links" : {
        "self" : "https://api.nasa.gov/neo/rest/v1/neo/3655397?api_key=t0TVs3DtDT2H8Oy2Zy8m2eVrNsAVKAexjcZXUckd"
      },
      "neo_reference_id" : "3655397",
      "name" : "(2013 YO2)",
      "nasa_jpl_url" : "http://ssd.jpl.nasa.gov/sbdb.cgi?sstr=3655397",
      "absolute_magnitude_h" : 24.8,
      "estimated_diameter" : {
        "kilometers" : {
          "estimated_diameter_min" : 0.0291443905,
          "estimated_diameter_max" : 0.0651688382
        },
        "meters" : {
          "estimated_diameter_min" : 29.1443904535,
          "estimated_diameter_max" : 65.1688382168
        },
        "miles" : {
          "estimated_diameter_min" : 0.018109479,
          "estimated_diameter_max" : 0.0404940262
        },
        "feet" : {
          "estimated_diameter_min" : 95.6180819754,
          "estimated_diameter_max" : 213.8085311752
        }
      },
      "is_potentially_hazardous_asteroid" : false,
      "close_approach_data" : [ {
        "close_approach_date" : "2013-12-15",
        "epoch_date_close_approach" : 1387094400000,
        "relative_velocity" : {
          "kilometers_per_second" : "11.238739786",
          "kilometers_per_hour" : "40459.4632294481",
          "miles_per_hour" : "25139.937027209"
        },
        "miss_distance" : {
          "astronomical" : "0.047201737",
          "lunar" : "18.3614768982",
          "kilometers" : "7061279.5",
          "miles" : "4387675.5"
        },
        "orbiting_body" : "Earth"
      } ],
      "orbital_data" : {
        "orbit_id" : "5",
        "orbit_determination_date" : "2017-04-06 08:43:13",
        "orbit_uncertainty" : "9",
        "minimum_orbit_intersection" : ".0191264",
        "jupiter_tisserand_invariant" : "3.205",
        "epoch_osculation" : "2456652.5",
        "eccentricity" : ".6123405367306041",
        "semi_major_axis" : "2.454071254269973",
        "inclination" : "3.088749518649812",
        "ascending_node_longitude" : "95.57093656311729",
        "orbital_period" : "1404.200681336268",
        "perihelion_distance" : ".9513439452551512",
        "perihelion_argument" : "313.4531343365848",
        "aphelion_distance" : "3.956798563284796",
        "perihelion_time" : "2456617.023544408389",
        "mean_anomaly" : "9.095227044631754",
        "mean_motion" : ".2563736115392111",
        "equinox" : "J2000"
      }
    }, {
      "links" : {
        "self" : "https://api.nasa.gov/neo/rest/v1/neo/2002063?api_key=t0TVs3DtDT2H8Oy2Zy8m2eVrNsAVKAexjcZXUckd"
      },
      "neo_reference_id" : "2002063",
      "name" : "2063 Bacchus (1977 HB)",
      "nasa_jpl_url" : "http://ssd.jpl.nasa.gov/sbdb.cgi?sstr=2002063",
      "absolute_magnitude_h" : 17.3,
      "estimated_diameter" : {
        "kilometers" : {
          "estimated_diameter_min" : 0.9216265485,
          "estimated_diameter_max" : 2.0608196123
        },
        "meters" : {
          "estimated_diameter_min" : 921.6265485028,
          "estimated_diameter_max" : 2060.8196123208
        },
        "miles" : {
          "estimated_diameter_min" : 0.5726720101,
          "estimated_diameter_max" : 1.2805335433
        },
        "feet" : {
          "estimated_diameter_min" : 3023.70924539,
          "estimated_diameter_max" : 6761.2194168867
        }
      },
      "is_potentially_hazardous_asteroid" : false,
      "close_approach_data" : [ {
        "close_approach_date" : "2013-12-15",
        "epoch_date_close_approach" : 1387094400000,
        "relative_velocity" : {
          "kilometers_per_second" : "11.6230077604",
          "kilometers_per_hour" : "41842.827937458",
          "miles_per_hour" : "25999.5060592499"
        },
        "miss_distance" : {
          "astronomical" : "0.3018657518",
          "lunar" : "117.42578125",
          "kilometers" : "45158476",
          "miles" : "28060176"
        },
        "orbiting_body" : "Earth"
      } ],
      "orbital_data" : {
        "orbit_id" : "115",
        "orbit_determination_date" : "2017-04-06 09:30:50",
        "orbit_uncertainty" : "0",
        "minimum_orbit_intersection" : ".0677359",
        "jupiter_tisserand_invariant" : "5.669",
        "epoch_osculation" : "2458000.5",
        "eccentricity" : ".3493596341407157",
        "semi_major_axis" : "1.077932189557415",
        "inclination" : "9.433081117673652",
        "ascending_node_longitude" : "33.10335398085817",
        "orbital_period" : "408.776187280115",
        "perihelion_distance" : ".7013461941851357",
        "perihelion_argument" : "55.31527488585108",
        "aphelion_distance" : "1.454518184929694",
        "perihelion_time" : "2457872.036611519353",
        "mean_anomaly" : "113.1348187396789",
        "mean_motion" : ".8806775228159487",
        "equinox" : "J2000"
      }
    }, {
      "links" : {
        "self" : "https://api.nasa.gov/neo/rest/v1/neo/3566465?api_key=t0TVs3DtDT2H8Oy2Zy8m2eVrNsAVKAexjcZXUckd"
      },
      "neo_reference_id" : "3566465",
      "name" : "(2011 KG4)",
      "nasa_jpl_url" : "http://ssd.jpl.nasa.gov/sbdb.cgi?sstr=3566465",
      "absolute_magnitude_h" : 23.0,
      "estimated_diameter" : {
        "kilometers" : {
          "estimated_diameter_min" : 0.0667659413,
          "estimated_diameter_max" : 0.1492931834
        },
        "meters" : {
          "estimated_diameter_min" : 66.7659413495,
          "estimated_diameter_max" : 149.2931834393
        },
        "miles" : {
          "estimated_diameter_min" : 0.0414864197,
          "estimated_diameter_max" : 0.0927664547
        },
        "feet" : {
          "estimated_diameter_min" : 219.0483710172,
          "estimated_diameter_max" : 489.807047955
        }
      },
      "is_potentially_hazardous_asteroid" : false,
      "close_approach_data" : [ {
        "close_approach_date" : "2013-12-15",
        "epoch_date_close_approach" : 1387094400000,
        "relative_velocity" : {
          "kilometers_per_second" : "13.9552133512",
          "kilometers_per_hour" : "50238.7680644626",
          "miles_per_hour" : "31216.4167453879"
        },
        "miss_distance" : {
          "astronomical" : "0.2273340573",
          "lunar" : "88.4329452515",
          "kilometers" : "34008692",
          "miles" : "21132020"
        },
        "orbiting_body" : "Earth"
      } ],
      "orbital_data" : {
        "orbit_id" : "10",
        "orbit_determination_date" : "2017-04-06 08:53:27",
        "orbit_uncertainty" : "8",
        "minimum_orbit_intersection" : ".0653132",
        "jupiter_tisserand_invariant" : "5.974",
        "epoch_osculation" : "2455707.5",
        "eccentricity" : ".08597255552980397",
        "semi_major_axis" : "1.007766352695379",
        "inclination" : "22.48579280760926",
        "ascending_node_longitude" : "65.77765885158422",
        "orbital_period" : "369.5202201040738",
        "perihelion_distance" : ".9211261039772071",
        "perihelion_argument" : "6.746192688392494",
        "aphelion_distance" : "1.09440660141355",
        "perihelion_time" : "2455534.309885625120",
        "mean_anomaly" : "168.7280905964946",
        "mean_motion" : ".9742362675000776",
        "equinox" : "J2000"
      }
    } ]
  }
}